H1 CPF  1  MCC 2022 12 23 14  8571 larets
H2  0304206 5557    27944 2022 12 22 23 45 00 2022 12 27 23 57 00   180 1 1  0 0 0
H9
10 0 59939 39420.000000 0     -4627695.989     -5207597.663      1111157.510
10 0 59939 39600.000000 0     -4610431.930     -4763539.276      2405260.010
10 0 59939 39780.000000 0     -4410708.794     -4148176.069      3610783.121
10 0 59939 39960.000000 0     -4031681.733     -3388747.330      4683331.525
10 0 59939 40140.000000 0     -3483898.881     -2517627.047      5583467.675
10 0 59939 40320.000000 0     -2784996.019     -1570904.895      6278175.074
10 0 59939 40500.000000 0     -1959093.917      -586855.241      6742060.303
10 0 59939 40680.000000 0     -1035921.901       395643.618      6958253.636
10 0 59939 40860.000000 0       -49713.036      1338661.347      6918980.922
10 0 59939 41040.000000 0       962083.441      2206686.277      6625816.184
10 0 59939 41220.000000 0      1960236.158      2967968.699      6089606.394
10 0 59939 41400.000000 0      2905259.753      3595687.883      5330074.490
10 0 59939 41580.000000 0      3758988.602      4068911.262      4375111.527
10 0 59939 41760.000000 0      4486133.918      4373306.535      3259766.720
10 0 59939 41940.000000 0      5055765.150      4501583.723      2024968.957
10 0 59939 42120.000000 0      5442643.066      4453639.416       716007.782
10 0 59939 42300.000000 0      5628337.474      4236396.352      -619159.386
10 0 59939 42480.000000 0      5602068.354      3863344.382     -1931707.664
10 0 59939 42660.000000 0      5361229.381      3353809.599     -3173764.762
10 0 59939 42840.000000 0      4911574.220      2731995.567     -4300172.215
10 0 59939 43020.000000 0      4267063.020      2025851.459     -5270118.605
10 0 59939 43200.000000 0      3449381.922      1265821.685     -6048578.583
10 0 59939 43380.000000 0      2487170.490       483545.723     -6607513.159
10 0 59939 43560.000000 0      1414994.847      -289435.797     -6926806.235
10 0 59939 43740.000000 0       272113.096     -1022920.902     -6994926.420
10 0 59939 43920.000000 0      -898933.466     -1689194.026     -6809308.486
10 0 59939 44100.000000 0     -2053858.792     -2264045.443     -6376451.295
10 0 59939 44280.000000 0     -3148263.122     -2727639.544     -5711732.198
10 0 59939 44460.000000 0     -4139310.673     -3065205.597     -4838934.509
10 0 59939 44640.000000 0     -4987411.027     -3267531.598     -3789484.526
10 0 59939 44820.000000 0     -5657836.568     -3331233.980     -2601396.022
10 0 59939 45000.000000 0     -6122205.029     -3258786.127     -1317942.858
10 0 59939 45180.000000 0     -6359749.073     -3058295.735        13906.280
10 0 59939 45360.000000 0     -6358300.168     -2743034.095      1345234.209
10 0 59939 45540.000000 0     -6114923.606     -2330735.388      2627032.313
10 0 59939 45720.000000 0     -5636155.867     -1842698.514      3812077.340
10 0 59939 45900.000000 0     -4937835.005     -1302741.728      4856736.213
10 0 59939 46080.000000 0     -4044528.828      -736065.808      5722612.325
10 0 59939 46260.000000 0     -2988608.497      -168091.605      6377964.772
10 0 59939 46440.000000 0     -1809008.690       376674.861      6798859.272
10 0 59939 46620.000000 0      -549732.740       875692.995      6970008.222
10 0 59939 46800.000000 0       741825.334      1309313.822      6885288.597
10 0 59939 46980.000000 0      2016682.597      1661551.675      6547934.843
10 0 59939 47160.000000 0      3226134.901      1920673.938      5970406.145
10 0 59939 47340.000000 0      4323630.143      2079589.247      5173934.811
10 0 59939 47520.000000 0      5266581.243      2136024.263      4187762.439
10 0 59939 47700.000000 0      6018054.691      2092486.246      3048084.751
10 0 59939 47880.000000 0      6548260.357      1956007.875      1796720.261
10 0 59939 48060.000000 0      6835768.389      1737688.349       479559.452
10 0 59939 48240.000000 0      6868394.820      1452051.959      -855153.371
10 0 59939 48420.000000 0      6643705.556      1116259.005     -2158629.074
10 0 59939 48600.000000 0      6169118.724       749206.428     -3383348.776
10 0 59939 48780.000000 0      5461605.841       370570.519     -4484810.661
10 0 59939 48960.000000 0      4547011.466         -157.234     -5423132.730
10 0 59939 49140.000000 0      3459040.387      -344594.247     -6164448.595
10 0 59939 49320.000000 0      2237971.385      -646308.416     -6682063.855
10 0 59939 49500.000000 0       929150.637      -891545.277     -6957345.402
10 0 59939 49680.000000 0      -418672.499     -1069815.035     -6980333.655
10 0 59939 49860.000000 0     -1755119.190     -1174319.522     -6750074.085
10 0 59939 50040.000000 0     -3030013.674     -1202208.462     -6274665.639
10 0 59939 50220.000000 0     -4195224.385     -1154656.649     -5571021.314
10 0 59939 50400.000000 0     -5206467.375     -1036760.515     -4664346.236
10 0 59939 50580.000000 0     -6025017.707      -857253.868     -3587321.346
10 0 59939 50760.000000 0     -6619258.348      -628050.032     -2379000.219
10 0 59939 50940.000000 0     -6965993.864      -363624.154     -1083436.553
10 0 59939 51120.000000 0     -7051455.498       -80261.153       251919.394
10 0 59939 51300.000000 0     -6871925.688       204798.780      1577997.469
10 0 59939 51480.000000 0     -6433942.363       474267.981      2845971.155
10 0 59939 51660.000000 0     -5754065.430       711724.000      4009127.886
10 0 59939 51840.000000 0     -4858210.167       902478.199      5024651.927
10 0 59939 52020.000000 0     -3780591.107      1034351.499      5855233.774
10 0 59939 52200.000000 0     -2562341.083      1098318.333      6470444.679
10 0 59939 52380.000000 0     -1249872.108      1088989.324      6847835.092
10 0 59939 52560.000000 0       106948.932      1004913.672      6973718.499
10 0 59939 52740.000000 0      1456724.480       848688.450      6843628.713
10 0 59939 52920.000000 0      2748485.315       626873.615      6462455.117
10 0 59939 53100.000000 0      3933623.953       349716.434      5844255.482
10 0 59939 53280.000000 0      4967740.747        30694.383      5011748.287
10 0 59939 53460.000000 0      5812334.616      -314107.385      3995495.034
10 0 59939 53640.000000 0      6436277.870      -666757.775      2832792.394
10 0 59939 53820.000000 0      6817010.475     -1008346.319      1566300.369
10 0 59939 54000.000000 0      6941389.433     -1319915.558       242455.595
10 0 59939 54180.000000 0      6806158.111     -1583413.053     -1090265.511
10 0 59939 54360.000000 0      6418003.563     -1782612.528     -2383165.214
10 0 59939 54540.000000 0      5793201.877     -1903955.109     -3589135.756
10 0 59939 54720.000000 0      4956879.527     -1937269.017     -4664382.965
10 0 59939 54900.000000 0      3941941.284     -1876333.578     -5569994.620
10 0 59939 55080.000000 0      2787721.458     -1719266.395     -6273299.477
10 0 59939 55260.000000 0      1538430.465     -1468718.249     -6748975.569
10 0 59939 55440.000000 0       241464.470     -1131870.635     -6979893.443
10 0 59939 55620.000000 0     -1054364.110      -720240.847     -6957678.262
10 0 59939 55800.000000 0     -2300617.292      -249300.245     -6682990.878
10 0 59939 55980.000000 0     -3450996.770       262086.652     -6165523.750
10 0 59939 56160.000000 0     -4463032.752       792386.701     -5423712.183
10 0 59939 56340.000000 0     -5299656.881      1318267.439     -4484159.293
10 0 59939 56520.000000 0     -5930605.378      1815587.677     -3380769.614
10 0 59939 56700.000000 0     -6333590.285      2260473.842     -2153594.448
10 0 59939 56880.000000 0     -6495178.577      2630431.249      -847415.282
10 0 59939 57060.000000 0     -6411326.507      2905438.852       489894.596
10 0 59939 57240.000000 0     -6087524.046      3068966.184      1809168.834
10 0 59939 57420.000000 0     -5538528.530      3108855.805      3061822.096
10 0 59939 57600.000000 0     -4787700.254      3018019.091      4201709.422
10 0 59939 57780.000000 0     -3865975.245      2794905.025      5186883.205
10 0 59939 57960.000000 0     -2810535.371      2443720.561      5981165.025
10 0 59939 58140.000000 0     -1663247.694      1974396.636      6555476.946
10 0 59939 58320.000000 0      -468946.614      1402300.050      6888882.374
10 0 59939 58500.000000 0       726353.810       747708.140      6969308.541
10 0 59939 58680.000000 0      1877247.860        35070.752      6793949.157
10 0 59939 58860.000000 0      2940669.453      -707914.043      6369343.518
10 0 59939 59040.000000 0      3877511.472     -1451382.376      5711133.827
10 0 59939 59220.000000 0      4654081.299     -2164507.710      4843501.267
10 0 59939 59400.000000 0      5243337.055     -2816780.879      3798294.486
10 0 59939 59580.000000 0      5625862.958     -3379317.379      2613872.762
10 0 59939 59760.000000 0      5790534.468     -3826132.553      1333689.822
10 0 59939 59940.000000 0      5734839.386     -4135323.735         4676.339
10 0 59939 60120.000000 0      5464841.712     -4290098.704     -1324517.316
10 0 59939 60300.000000 0      4994788.867     -4279596.222     -2605342.991
10 0 59939 60480.000000 0      4346383.973     -4099456.465     -3791156.750
10 0 59939 60660.000000 0      3547768.277     -3752118.459     -4838921.584
10 0 59939 60840.000000 0      2632272.390     -3246835.005     -5710742.885
10 0 59939 61020.000000 0      1637005.289     -2599413.755     -6375182.062
10 0 59939 61200.000000 0       601351.046     -1831706.910     -6808320.505
10 0 59939 61380.000000 0      -434572.881      -970865.251     -6994555.903
10 0 59939 61560.000000 0     -1431435.980       -48388.077     -6927111.671
10 0 59939 61740.000000 0     -2352148.117       900998.674     -6608265.856
10 0 59939 61920.000000 0     -3163208.235      1840609.451     -6049296.376
10 0 59939 62100.000000 0     -3835910.778      2733179.183     -5270143.766
10 0 59939 62280.000000 0     -4347381.649      3542321.652     -4298785.354
99
